[{"OBJECT_NAME":"GSAT0214 (GALILEO 18)","OBJECT_ID":"2016-069D","EPOCH":"2026-03-12T21:54:20.393856","MEAN_MOTION":1.70474834,"ECCENTRICITY":0.0004476,"INCLINATION":55.4337,"RA_OF_ASC_NODE":103.7448,"ARG_OF_PERICENTER":297.9628,"MEAN_ANOMALY":62.0628,"EPHEMERIS_TYPE":0,"CLASSIFICATION_TYPE":"U","NORAD_CAT_ID":41862,"ELEMENT_SET_NO":999,"REV_AT_EPOCH":5800,"BSTAR":0,"MEAN_MOTION_DOT":2.8e-7,"MEAN_MOTION_DDOT":0},{"OBJECT_NAME":"SES-15 (WAAS/PRN 133)","OBJECT_ID":"2017-026A","EPOCH":"2026-03-12T14:49:13.423008","MEAN_MOTION":1.00270524,"ECCENTRICITY":7.066e-5,"INCLINATION":0.0388,"RA_OF_ASC_NODE":330.9168,"ARG_OF_PERICENTER":38.8107,"MEAN_ANOMALY":253.6487,"EPHEMERIS_TYPE":0,"CLASSIFICATION_TYPE":"U","NORAD_CAT_ID":42709,"ELEMENT_SET_NO":999,"REV_AT_EPOCH":646,"BSTAR":0,"MEAN_MOTION_DOT":6.0e-7,"MEAN_MOTION_DDOT":0},{"OBJECT_NAME":"QZS-2 (QZSS/PRN 194)","OBJECT_ID":"2017-028A","EPOCH":"2026-03-14T08:14:39.132672","MEAN_MOTION":1.0025939,"ECCENTRICITY":0.07444661,"INCLINATION":39.5754,"RA_OF_ASC_NODE":244.534,"ARG_OF_PERICENTER":270.4251,"MEAN_ANOMALY":281.8153,"EPHEMERIS_TYPE":0,"CLASSIFICATION_TYPE":"U","NORAD_CAT_ID":42738,"ELEMENT_SET_NO":999,"REV_AT_EPOCH":667,"BSTAR":0,"MEAN_MOTION_DOT":-1.34e-6,"MEAN_MOTION_DDOT":0},{"OBJECT_NAME":"QZS-3 (QZSS/PRN 199)","OBJECT_ID":"2017-048A","EPOCH":"2026-03-14T21:05:33.192096","MEAN_MOTION":1.00270941,"ECCENTRICITY":0.00023221,"INCLINATION":0.0569,"RA_OF_ASC_NODE":196.4791,"ARG_OF_PERICENTER":175.3191,"MEAN_ANOMALY":244.1173,"EPHEMERIS_TYPE":0,"CLASSIFICATION_TYPE":"U","NORAD_CAT_ID":42917,"ELEMENT_SET_NO":999,"REV_AT_EPOCH":3131,"BSTAR":0,"MEAN_MOTION_DOT":-3.49e-6,"MEAN_MOTION_DDOT":0},{"OBJECT_NAME":"COSMOS 2522 (752)","OBJECT_ID":"2017-055A","EPOCH":"2026-03-14T07:58:53.768064","MEAN_MOTION":2.13101875,"ECCENTRICITY":0.00075908,"INCLINATION":64.0786,"RA_OF_ASC_NODE":195.11,"ARG_OF_PERICENTER":228.7729,"MEAN_ANOMALY":131.1447,"EPHEMERIS_TYPE":0,"CLASSIFICATION_TYPE":"U","NORAD_CAT_ID":42939,"ELEMENT_SET_NO":999,"REV_AT_EPOCH":6595,"BSTAR":0,"MEAN_MOTION_DOT":1.0e-8,"MEAN_MOTION_DDOT":0},{"OBJECT_NAME":"QZS-4 (QZSS/PRN 195)","OBJECT_ID":"2017-062A","EPOCH":"2026-03-14T14:45:38.713824","MEAN_MOTION":1.00278286,"ECCENTRICITY":0.07479988,"INCLINATION":40.1666,"RA_OF_ASC_NODE":344.6945,"ARG_OF_PERICENTER":270.034,"MEAN_ANOMALY":279.5094,"EPHEMERIS_TYPE":0,"CLASSIFICATION_TYPE":"U","NORAD_CAT_ID":42965,"ELEMENT_SET_NO":999,"REV_AT_EPOCH":3085,"BSTAR":0,"MEAN_MOTION_DOT":-2.95e-6,"MEAN_MOTION_DDOT":0},{"OBJECT_NAME":"BEIDOU-3 M1 (C19)","OBJECT_ID":"2017-069A","EPOCH":"2026-03-13T00:25:55.144704","MEAN_MOTION":1.86231473,"ECCENTRICITY":0.00125104,"INCLINATION":56.6089,"RA_OF_ASC_NODE":66.2503,"ARG_OF_PERICENTER":309.879,"MEAN_ANOMALY":50.0328,"EPHEMERIS_TYPE":0,"CLASSIFICATION_TYPE":"U","NORAD_CAT_ID":43001,"ELEMENT_SET_NO":999,"REV_AT_EPOCH":5681,"BSTAR":0,"MEAN_MOTION_DOT":1.1e-7,"MEAN_MOTION_DDOT":0},{"OBJECT_NAME":"BEIDOU-3 M2 (C20)","OBJECT_ID":"2017-069B","EPOCH":"2026-03-12T22:57:23.073120","MEAN_MOTION":1.86230974,"ECCENTRICITY":0.00098363,"INCLINATION":56.6078,"RA_OF_ASC_NODE":66.2881,"ARG_OF_PERICENTER":329.3549,"MEAN_ANOMALY":30.6095,"EPHEMERIS_TYPE":0,"CLASSIFICATION_TYPE":"U","NORAD_CAT_ID":43002,"ELEMENT_SET_NO":999,"REV_AT_EPOCH":5680,"BSTAR":0,"MEAN_MOTION_DOT":1.1e-7,"MEAN_MOTION_DDOT":0},{"OBJECT_NAME":"GSAT0215 (GALILEO 19)","OBJECT_ID":"2017-079A","EPOCH":"2026-03-12T19:35:18.886848","MEAN_MOTION":1.70474604,"ECCENTRICITY":5.032e-5,"INCLINATION":55.1052,"RA_OF_ASC_NODE":224.1555,"ARG_OF_PERICENTER":355.2258,"MEAN_ANOMALY":4.7321,"EPHEMERIS_TYPE":0,"CLASSIFICATION_TYPE":"U","NORAD_CAT_ID":43055,"ELEMENT_SET_NO":999,"REV_AT_EPOCH":5134,"BSTAR":0,"MEAN_MOTION_DOT":3.7e-7,"MEAN_MOTION_DDOT":0},{"OBJECT_NAME":"GSAT0216 (GALILEO 20)","OBJECT_ID":"2017-079B","EPOCH":"2026-03-14T06:44:00.376224","MEAN_MOTION":1.70474699,"ECCENTRICITY":0.00017364,"INCLINATION":55.1052,"RA_OF_ASC_NODE":224.1154,"ARG_OF_PERICENTER":311.7748,"MEAN_ANOMALY":48.1644,"EPHEMERIS_TYPE":0,"CLASSIFICATION_TYPE":"U","NORAD_CAT_ID":43056,"ELEMENT_SET_NO":999,"REV_AT_EPOCH":5138,"BSTAR":0,"MEAN_MOTION_DOT":3.4e-7,"MEAN_MOTION_DDOT":0},{"OBJECT_NAME":"GSAT0217 (GALILEO 21)","OBJECT_ID":"2017-079C","EPOCH":"2026-03-12T17:47:52.788480","MEAN_MOTION":1.70474639,"ECCENTRICITY":0.00019481,"INCLINATION":55.1048,"RA_OF_ASC_NODE":224.1555,"ARG_OF_PERICENTER":350.8522,"MEAN_ANOMALY":9.1027,"EPHEMERIS_TYPE":0,"CLASSIFICATION_TYPE":"U","NORAD_CAT_ID":43057,"ELEMENT_SET_NO":999,"REV_AT_EPOCH":5134,"BSTAR":0,"MEAN_MOTION_DOT":3.7e-7,"MEAN_MOTION_DDOT":0},{"OBJECT_NAME":"GSAT0218 (GALILEO 22)","OBJECT_ID":"2017-079D","EPOCH":"2026-03-13T13:09:25.164288","MEAN_MOTION":1.70474604,"ECCENTRICITY":0.00020247,"INCLINATION":55.1035,"RA_OF_ASC_NODE":224.1311,"ARG_OF_PERICENTER":298.9535,"MEAN_ANOMALY":60.9828,"EPHEMERIS_TYPE":0,"CLASSIFICATION_TYPE":"U","NORAD_CAT_ID":43058,"ELEMENT_SET_NO":999,"REV_AT_EPOCH":5138,"BSTAR":0,"MEAN_MOTION_DOT":3.6e-7,"MEAN_MOTION_DDOT":0},{"OBJECT_NAME":"BEIDOU-3 M7 (C27)","OBJECT_ID":"2018-003A","EPOCH":"2026-03-10T00:19:40.408896","MEAN_MOTION":1.86232563,"ECCENTRICITY":0.0004805,"INCLINATION":54.4158,"RA_OF_ASC_NODE":305.7741,"ARG_OF_PERICENTER":71.6026,"MEAN_ANOMALY":288.499,"EPHEMERIS_TYPE":0,"CLASSIFICATION_TYPE":"U","NORAD_CAT_ID":43107,"ELEMENT_SET_NO":999,"REV_AT_EPOCH":5550,"BSTAR":0,"MEAN_MOTION_DOT":-5.4e-7,"MEAN_MOTION_DDOT":0},{"OBJECT_NAME":"BEIDOU-3 M8 (C28)","OBJECT_ID":"2018-003B","EPOCH":"2026-03-14T06:07:02.483040","MEAN_MOTION":1.86231237,"ECCENTRICITY":0.00029158,"INCLINATION":54.4046,"RA_OF_ASC_NODE":305.6088,"ARG_OF_PERICENTER":295.683,"MEAN_ANOMALY":64.3443,"EPHEMERIS_TYPE":0,"CLASSIFICATION_TYPE":"U","NORAD_CAT_ID":43108,"ELEMENT_SET_NO":999,"REV_AT_EPOCH":5559,"BSTAR":0,"MEAN_MOTION_DOT":-2.2e-7,"MEAN_MOTION_DDOT":0},{"OBJECT_NAME":"BEIDOU-3 M4 (C22)","OBJECT_ID":"2018-018A","EPOCH":"2026-03-13T02:04:13.434240","MEAN_MOTION":1.86231392,"ECCENTRICITY":0.0006972,"INCLINATION":56.5678,"RA_OF_ASC_NODE":66.3153,"ARG_OF_PERICENTER":350.3592,"MEAN_ANOMALY":9.6495,"EPHEMERIS_TYPE":0,"CLASSIFICATION_TYPE":"U","NORAD_CAT_ID":43207,"ELEMENT_SET_NO":999,"REV_AT_EPOCH":5495,"BSTAR":0,"MEAN_MOTION_DOT":1.2e-7,"MEAN_MOTION_DDOT":0},{"OBJECT_NAME":"BEIDOU-3 M3 (C21)","OBJECT_ID":"2018-018B","EPOCH":"2026-03-13T03:39:54.144864","MEAN_MOTION":1.86231479,"ECCENTRICITY":0.00100397,"INCLINATION":56.5674,"RA_OF_ASC_NODE":66.3171,"ARG_OF_PERICENTER":319.6425,"MEAN_ANOMALY":40.3052,"EPHEMERIS_TYPE":0,"CLASSIFICATION_TYPE":"U","NORAD_CAT_ID":43208,"ELEMENT_SET_NO":999,"REV_AT_EPOCH":5495,"BSTAR":0,"MEAN_MOTION_DOT":1.2e-7,"MEAN_MOTION_DDOT":0},{"OBJECT_NAME":"BEIDOU-3 M9 (C29)","OBJECT_ID":"2018-029A","EPOCH":"2026-03-12T19:59:30.450912","MEAN_MOTION":1.86228478,"ECCENTRICITY":9.895e-5,"INCLINATION":54.2803,"RA_OF_ASC_NODE":303.3197,"ARG_OF_PERICENTER":26.5592,"MEAN_ANOMALY":333.4992,"EPHEMERIS_TYPE":0,"CLASSIFICATION_TYPE":"U","NORAD_CAT_ID":43245,"ELEMENT_SET_NO":999,"REV_AT_EPOCH":5410,"BSTAR":0,"MEAN_MOTION_DOT":-2.6e-7,"MEAN_MOTION_DDOT":0}]
